{
    "links": {
        "self": "http://www.neowsapp.com/rest/v1/neo/3893952?api_key=iIulBulltgU6a56xZRHN4H3l9WmuAYTsLGpBGhQ2"
    },
    "id": "3893952",
    "neo_reference_id": "3893952",
    "name": "(2019 XC1)",
    "designation": "2019 XC1",
    "nasa_jpl_url": "http://ssd.jpl.nasa.gov/sbdb.cgi?sstr=3893952",
    "absolute_magnitude_h": 22.4,
    "estimated_diameter": {
        "kilometers": {
            "estimated_diameter_min": 0.0880146521,
            "estimated_diameter_max": 0.1968067451
        },
        "meters": {
            "estimated_diameter_min": 88.0146520901,
            "estimated_diameter_max": 196.8067450894
        },
        "miles": {
            "estimated_diameter_min": 0.0546897524,
            "estimated_diameter_max": 0.122290004
        },
        "feet": {
            "estimated_diameter_min": 288.7619911632,
            "estimated_diameter_max": 645.6914415591
        }
    },
    "is_potentially_hazardous_asteroid": false,
    "close_approach_data": [
        {
            "close_approach_date": "1995-11-26",
            "close_approach_date_full": "1995-Nov-26 08:33",
            "epoch_date_close_approach": 817374780000,
            "relative_velocity": {
                "kilometers_per_second": "14.6178586963",
                "kilometers_per_hour": "52624.2913065029",
                "miles_per_hour": "32698.6881176434"
            },
            "miss_distance": {
                "astronomical": "0.3013021695",
                "lunar": "117.2065439355",
                "kilometers": "45074162.783578965",
                "miles": "28007786.015421117"
            },
            "orbiting_body": "Earth"
        },
        {
            "close_approach_date": "2009-02-10",
            "close_approach_date_full": "2009-Feb-10 23:41",
            "epoch_date_close_approach": 1234309260000,
            "relative_velocity": {
                "kilometers_per_second": "15.7119067029",
                "kilometers_per_hour": "56562.8641303982",
                "miles_per_hour": "35145.9641036911"
            },
            "miss_distance": {
                "astronomical": "0.3901489441",
                "lunar": "151.7679392549",
                "kilometers": "58365451.020109067",
                "miles": "36266609.5588644446"
            },
            "orbiting_body": "Earth"
        },
        {
            "close_approach_date": "2019-12-17",
            "close_approach_date_full": "2019-Dec-17 04:24",
            "epoch_date_close_approach": 1576556640000,
            "relative_velocity": {
                "kilometers_per_second": "8.9399259016",
                "kilometers_per_hour": "32183.7332455855",
                "miles_per_hour": "19997.7202491806"
            },
            "miss_distance": {
                "astronomical": "0.0664495046",
                "lunar": "25.8488572894",
                "kilometers": "9940704.350715202",
                "miles": "6176867.2583937076"
            },
            "orbiting_body": "Earth"
        },
        {
            "close_approach_date": "2043-12-21",
            "close_approach_date_full": "2043-Dec-21 15:53",
            "epoch_date_close_approach": 2334325980000,
            "relative_velocity": {
                "kilometers_per_second": "8.4335053091",
                "kilometers_per_hour": "30360.6191126253",
                "miles_per_hour": "18864.9080258421"
            },
            "miss_distance": {
                "astronomical": "0.0404487015",
                "lunar": "15.7345448835",
                "kilometers": "6051039.588665805",
                "miles": "3759941.649585909"
            },
            "orbiting_body": "Earth"
        }
    ],
    "orbital_data": {
        "orbit_id": "19",
        "orbit_determination_date": "2020-03-12 06:04:18",
        "first_observation_date": "2019-12-03",
        "last_observation_date": "2020-03-02",
        "data_arc_in_days": 90,
        "observations_used": 159,
        "orbit_uncertainty": "6",
        "minimum_orbit_intersection": ".0359259",
        "jupiter_tisserand_invariant": "4.115",
        "epoch_osculation": "2459000.5",
        "eccentricity": ".3980464366956347",
        "semi_major_axis": "1.682224163644376",
        "inclination": "11.72903633252128",
        "ascending_node_longitude": "269.0388732510603",
        "orbital_period": "796.9374342751997",
        "perihelion_distance": "1.012620829582438",
        "perihelion_argument": "193.7409897022972",
        "aphelion_distance": "2.351827497706314",
        "perihelion_time": "2458847.951946536061",
        "mean_anomaly": "68.91042745026077",
        "mean_motion": ".4517293133900951",
        "equinox": "J2000",
        "orbit_class": {
            "orbit_class_type": "APO",
            "orbit_class_description": "Near-Earth asteroid orbits which cross the Earth’s orbit similar to that of 1862 Apollo",
            "orbit_class_range": "a (semi-major axis) > 1.0 AU; q (perihelion) < 1.017 AU"
        }
    },
    "is_sentry_object": false
}